[{"OBJECT_NAME":"KINEIS-5C","OBJECT_ID":"2024-219A","EPOCH":"2026-03-09T10:16:15.388896","MEAN_MOTION":14.72364906,"ECCENTRICITY":0.00018587,"INCLINATION":97.9657,"RA_OF_ASC_NODE":229.8875,"ARG_OF_PERICENTER":111.5072,"MEAN_ANOMALY":248.6333,"EPHEMERIS_TYPE":0,"CLASSIFICATION_TYPE":"U","NORAD_CAT_ID":62081,"ELEMENT_SET_NO":999,"REV_AT_EPOCH":6907,"BSTAR":0.00014320632,"MEAN_MOTION_DOT":8.57e-6,"MEAN_MOTION_DDOT":0},{"OBJECT_NAME":"FENGYUN 1C DEB","OBJECT_ID":"1999-025BSV","EPOCH":"2026-03-09T10:24:08.158464","MEAN_MOTION":14.6573547,"ECCENTRICITY":0.00281944,"INCLINATION":99.0439,"RA_OF_ASC_NODE":247.1336,"ARG_OF_PERICENTER":275.5109,"MEAN_ANOMALY":147.7653,"EPHEMERIS_TYPE":0,"CLASSIFICATION_TYPE":"U","NORAD_CAT_ID":31389,"ELEMENT_SET_NO":999,"REV_AT_EPOCH":97765,"BSTAR":0.0046362209,"MEAN_MOTION_DOT":0.00025435,"MEAN_MOTION_DDOT":0}]
